0 DELTA 1 DEB
1 10876U 76077DE  13281.48750123  .00000002  00000-0  33402-3 0  5458
2 10876 102.4916 018.4735 0101646 164.9109 258.3241 12.48179884693020
0 DELTA 1 DEB
1 10876U 76077DE  13284.20497003 -.00000007  00000-0  27020-3 0  5462
2 10876 102.4919 021.3028 0101595 159.9511 229.0722 12.48180213693369
0 DELTA 1 DEB
1 10876U 76077DE  13286.21827284 -.00000014  00000-0  22518-3 0  5479
2 10876 102.4922 023.3991 0101543 156.2806 275.7002 12.48180240693611
0 DELTA 1 DEB
1 10876U 76077DE  13288.21884727  .00000068  00000-0  76967-3 0  5482
2 10876 102.4922 025.4821 0101490 152.6298 265.1409 12.48180825693862
0 DELTA 1 DEB
1 10876U 76077DE  13290.87665589  .00000048  00000-0  63562-3 0  5496
2 10876 102.4919 028.2494 0101419 147.7502 327.8479 12.48181185694199
0 DELTA 1 DEB
1 10876U 76077DE  13293.12203855  .00000059  00000-0  70893-3 0  5500
2 10876 102.4916 030.5873 0101343 143.6420 337.3322 12.48181618694478
0 DELTA 1 DEB
1 10876U 76077DE  13295.19531244  .00000053  00000-0  66623-3 0  5516
2 10876 102.4915 032.7461 0101272 139.8392 293.4701 12.48182388694737
